[{"OBJECT_NAME":"TEIKYOSAT-4 (OORURI)","OBJECT_ID":"2021-102B","EPOCH":"2026-03-09T16:12:29.535840","MEAN_MOTION":15.09119208,"ECCENTRICITY":0.00103447,"INCLINATION":97.3797,"RA_OF_ASC_NODE":101.9931,"ARG_OF_PERICENTER":276.5421,"MEAN_ANOMALY":83.463,"EPHEMERIS_TYPE":0,"CLASSIFICATION_TYPE":"U","NORAD_CAT_ID":49396,"ELEMENT_SET_NO":999,"REV_AT_EPOCH":23771,"BSTAR":0.00015739844,"MEAN_MOTION_DOT":2.438e-5,"MEAN_MOTION_DDOT":0},{"OBJECT_NAME":"STARLINK-3922","OBJECT_ID":"2022-051BA","EPOCH":"2026-03-09T09:54:36.922176","MEAN_MOTION":15.08838869,"ECCENTRICITY":0.00014093,"INCLINATION":53.2167,"RA_OF_ASC_NODE":120.3627,"ARG_OF_PERICENTER":98.0258,"MEAN_ANOMALY":262.0895,"EPHEMERIS_TYPE":0,"CLASSIFICATION_TYPE":"U","NORAD_CAT_ID":52584,"ELEMENT_SET_NO":999,"REV_AT_EPOCH":21154,"BSTAR":-1.1077199e-5,"MEAN_MOTION_DOT":-4.64e-6,"MEAN_MOTION_DDOT":0}]
